{"type": "FeatureCollection", "features": [ {"type": "Feature", "properties": {"norad_id": 37085, "name": "COSMOS 2251 DEB", "group": "cosmos-2251-debris", "lat": -6.350938576188454, "lon": 31.901440795229433, "alt_km": 454.24180281295685, "timestamp": "2025-12-15T11:38:37.549586+00:00", "meta": {"OBJECT_NAME": "COSMOS 2251 DEB", "OBJECT_ID": "1993-036BFF", "EPOCH": "2025-12-13T09:00:31.829760", "MEAN_MOTION": 15.41681088, "ECCENTRICITY": 0.00213633, "INCLINATION": 73.9479, "RA_OF_ASC_NODE": 214.6598, "ARG_OF_PERICENTER": 52.9099, "MEAN_ANOMALY": 307.4058, "EPHEMERIS_TYPE": 0, "CLASSIFICATION_TYPE": "U", "NORAD_CAT_ID": 37085, "ELEMENT_SET_NO": 999, "REV_AT_EPOCH": 67147, "BSTAR": 0.0025075056, "MEAN_MOTION_DOT": 0.00108114, "MEAN_MOTION_DDOT": 0}, "tle": {"line1": "1 37085U 93036BFF 25347.37536840  .00108114  00000+0  25075-2 0  9996", "line2": "2 37085  73.9479 214.6598 0021363  52.9099 307.4058 15.41681088671472"}}, "geometry": {"type": "Point", "coordinates": [31.901440795229433, -6.350938576188454]}}, {"type": "Feature", "properties": {"norad_id": 37089, "name": "COSMOS 2251 DEB", "group": "cosmos-2251-debris", "lat": 11.37554801963238, "lon": -42.73761145458852, "alt_km": 686.2008002773855, "timestamp": "2025-12-15T11:38:37.549596+00:00", "meta": {"OBJECT_NAME": "COSMOS 2251 DEB", "OBJECT_ID": "1993-036BFK", "EPOCH": "2025-12-14T03:27:49.418208", "MEAN_MOTION": 14.52986462, "ECCENTRICITY": 0.01351412, "INCLINATION": 74.0364, "RA_OF_ASC_NODE": 143.0937, "ARG_OF_PERICENTER": 243.0072, "MEAN_ANOMALY": 115.7239, "EPHEMERIS_TYPE": 0, "CLASSIFICATION_TYPE": "U", "NORAD_CAT_ID": 37089, "ELEMENT_SET_NO": 999, "REV_AT_EPOCH": 66130, "BSTAR": 0.0026411807, "MEAN_MOTION_DOT": 0.00012281, "MEAN_MOTION_DDOT": 0}, "tle": {"line1": "1 37089U 93036BFK 25348.14432197  .00012281  00000+0  26412-2 0  9991", "line2": "2 37089  74.0364 143.0937 0135141 243.0072 115.7239 14.52986462661304"}}, "geometry": {"type": "Point", "coordinates": [-42.73761145458852, 11.37554801963238]}}, {"type": "Feature", "properties": {"norad_id": 37094, "name": "COSMOS 2251 DEB", "group": "cosmos-2251-debris", "lat": 31.946035743771517, "lon": -74.10002507168981, "alt_km": 737.7528365169583, "timestamp": "2025-12-15T11:38:37.549606+00:00", "meta": {"OBJECT_NAME": "COSMOS 2251 DEB", "OBJECT_ID": "1993-036BFQ", "EPOCH": "2025-12-10T15:45:11.030688", "MEAN_MOTION": 14.37808892, "ECCENTRICITY": 0.0084108, "INCLINATION": 74.1091, "RA_OF_ASC_NODE": 124.9809, "ARG_OF_PERICENTER": 91.4784, "MEAN_ANOMALY": 269.6007, "EPHEMERIS_TYPE": 0, "CLASSIFICATION_TYPE": "U", "NORAD_CAT_ID": 37094, "ELEMENT_SET_NO": 999, "REV_AT_EPOCH": 84476, "BSTAR": 0.0015212, "MEAN_MOTION_DOT": 4.753e-05, "MEAN_MOTION_DDOT": 0}, "tle": {"line1": "1 37094U 93036BFQ 25344.65637767  .00004753  00000+0  15212-2 0  9990", "line2": "2 37094  74.1091 124.9809 0084108  91.4784 269.6007 14.37808892844763"}}, "geometry": {"type": "Point", "coordinates": [-74.10002507168981, 31.946035743771517]}}, {"type": "Feature", "properties": {"norad_id": 37095, "name": "COSMOS 2251 DEB", "group": "cosmos-2251-debris", "lat": 73.50389722145482, "lon": -73.05057484523891, "alt_km": 995.2086728815611, "timestamp": "2025-12-15T11:38:37.549617+00:00", "meta": {"OBJECT_NAME": "COSMOS 2251 DEB", "OBJECT_ID": "1993-036BFR", "EPOCH": "2025-12-14T06:06:08.543520", "MEAN_MOTION": 14.03409585, "ECCENTRICITY": 0.019488, "INCLINATION": 73.8479, "RA_OF_ASC_NODE": 187.2421, "ARG_OF_PERICENTER": 244.7942, "MEAN_ANOMALY": 113.2877, "EPHEMERIS_TYPE": 0, "CLASSIFICATION_TYPE": "U", "NORAD_CAT_ID": 37095, "ELEMENT_SET_NO": 999, "REV_AT_EPOCH": 62657, "BSTAR": 0.0017117328, "MEAN_MOTION_DOT": 3.142e-05, "MEAN_MOTION_DDOT": 0}, "tle": {"line1": "1 37095U 93036BFR 25348.25426555  .00003142  00000+0  17117-2 0  9999", "line2": "2 37095  73.8479 187.2421 0194880 244.7942 113.2877 14.03409585626575"}}, "geometry": {"type": "Point", "coordinates": [-73.05057484523891, 73.50389722145482]}}, {"type": "Feature", "properties": {"norad_id": 37108, "name": "COSMOS 2251 DEB", "group": "cosmos-2251-debris", "lat": 27.117019134581497, "lon": -112.94305959238963, "alt_km": 687.63227269039, "timestamp": "2025-12-15T11:38:37.549626+00:00", "meta": {"OBJECT_NAME": "COSMOS 2251 DEB", "OBJECT_ID": "1993-036BGE", "EPOCH": "2025-12-13T22:17:49.587360", "MEAN_MOTION": 14.41316868, "ECCENTRICITY": 0.00911807, "INCLINATION": 74.0446, "RA_OF_ASC_NODE": 78.3607, "ARG_OF_PERICENTER": 154.7521, "MEAN_ANOMALY": 205.8134, "EPHEMERIS_TYPE": 0, "CLASSIFICATION_TYPE": "U", "NORAD_CAT_ID": 37108, "ELEMENT_SET_NO": 999, "REV_AT_EPOCH": 85524, "BSTAR": 0.0015372523, "MEAN_MOTION_DOT": 5.202e-05, "MEAN_MOTION_DDOT": 0}, "tle": {"line1": "1 37108U 93036BGE 25347.92904615  .00005202  00000+0  15373-2 0  9996", "line2": "2 37108  74.0446  78.3607 0091180 154.7521 205.8134 14.41316868855240"}}, "geometry": {"type": "Point", "coordinates": [-112.94305959238963, 27.117019134581497]}}, {"type": "Feature", "properties": {"norad_id": 37126, "name": "COSMOS 2251 DEB", "group": "cosmos-2251-debris", "lat": 4.634546298586095, "lon": -9.50957093991596, "alt_km": 717.3108967166318, "timestamp": "2025-12-15T11:38:37.549637+00:00", "meta": {"OBJECT_NAME": "COSMOS 2251 DEB", "OBJECT_ID": "1993-036BGY", "EPOCH": "2025-12-14T17:41:32.671680", "MEAN_MOTION": 14.7308147, "ECCENTRICITY": 0.01231107, "INCLINATION": 73.9539, "RA_OF_ASC_NODE": 350.6179, "ARG_OF_PERICENTER": 228.3769, "MEAN_ANOMALY": 130.6808, "EPHEMERIS_TYPE": 0, "CLASSIFICATION_TYPE": "U", "NORAD_CAT_ID": 37126, "ELEMENT_SET_NO": 999, "REV_AT_EPOCH": 8128, "BSTAR": 0.00024804431, "MEAN_MOTION_DOT": 1.761e-05, "MEAN_MOTION_DDOT": 0}, "tle": {"line1": "1 37126U 93036BGY 25348.73718370  .00001761  00000+0  24804-3 0  9993", "line2": "2 37126  73.9539 350.6179 0123110 228.3769 130.6808 14.73081470 81283"}}, "geometry": {"type": "Point", "coordinates": [-9.50957093991596, 4.634546298586095]}}, {"type": "Feature", "properties": {"norad_id": 37132, "name": "COSMOS 2251 DEB", "group": "cosmos-2251-debris", "lat": 68.13025395599992, "lon": 3.016694620070863, "alt_km": 624.4990839112606, "timestamp": "2025-12-15T11:38:37.549646+00:00", "meta": {"OBJECT_NAME": "COSMOS 2251 DEB", "OBJECT_ID": "1993-036BHE", "EPOCH": "2025-12-13T08:48:34.863552", "MEAN_MOTION": 14.77850138, "ECCENTRICITY": 0.00399242, "INCLINATION": 74.002, "RA_OF_ASC_NODE": 232.8066, "ARG_OF_PERICENTER": 28.724, "MEAN_ANOMALY": 331.6121, "EPHEMERIS_TYPE": 0, "CLASSIFICATION_TYPE": "U", "NORAD_CAT_ID": 37132, "ELEMENT_SET_NO": 999, "REV_AT_EPOCH": 62425, "BSTAR": 0.0017766923, "MEAN_MOTION_DOT": 0.00012937, "MEAN_MOTION_DDOT": 0}, "tle": {"line1": "1 37132U 93036BHE 25347.36707018  .00012937  00000+0  17767-2 0  9991", "line2": "2 37132  74.0020 232.8066 0039924  28.7240 331.6121 14.77850138624258"}}, "geometry": {"type": "Point", "coordinates": [3.016694620070863, 68.13025395599992]}}, {"type": "Feature", "properties": {"norad_id": 37270, "name": "COSMOS 2251 DEB", "group": "cosmos-2251-debris", "lat": 5.643910341332744, "lon": 149.7787419113942, "alt_km": 1327.3008555720771, "timestamp": "2025-12-15T11:38:37.549656+00:00", "meta": {"OBJECT_NAME": "COSMOS 2251 DEB", "OBJECT_ID": "1993-036BHJ", "EPOCH": "2025-12-12T22:45:06.098400", "MEAN_MOTION": 13.59808663, "ECCENTRICITY": 0.03985351, "INCLINATION": 73.9378, "RA_OF_ASC_NODE": 335.5481, "ARG_OF_PERICENTER": 347.3958, "MEAN_ANOMALY": 11.7404, "EPHEMERIS_TYPE": 0, "CLASSIFICATION_TYPE": "U", "NORAD_CAT_ID": 37270, "ELEMENT_SET_NO": 999, "REV_AT_EPOCH": 77072, "BSTAR": 0.0064936549, "MEAN_MOTION_DOT": 8.148e-05, "MEAN_MOTION_DDOT": 0}, "tle": {"line1": "1 37270U 93036BHJ 25346.94798725  .00008148  00000+0  64937-2 0  9992", "line2": "2 37270  73.9378 335.5481 0398535 347.3958  11.7404 13.59808663770728"}}, "geometry": {"type": "Point", "coordinates": [149.7787419113942, 5.643910341332744]}}, {"type": "Feature", "properties": {"norad_id": 37278, "name": "COSMOS 2251 DEB", "group": "cosmos-2251-debris", "lat": 22.891502843528546, "lon": -8.589034682558347, "alt_km": 1009.749855046176, "timestamp": "2025-12-15T11:38:37.549666+00:00", "meta": {"OBJECT_NAME": "COSMOS 2251 DEB", "OBJECT_ID": "1993-036BHS", "EPOCH": "2025-12-04T09:26:36.152736", "MEAN_MOTION": 14.15029915, "ECCENTRICITY": 0.029998, "INCLINATION": 73.7864, "RA_OF_ASC_NODE": 4.3592, "ARG_OF_PERICENTER": 188.2556, "MEAN_ANOMALY": 234.4903, "EPHEMERIS_TYPE": 0, "CLASSIFICATION_TYPE": "U", "NORAD_CAT_ID": 37278, "ELEMENT_SET_NO": 999, "REV_AT_EPOCH": 63711, "BSTAR": 0.0023061, "MEAN_MOTION_DOT": 6.884e-05, "MEAN_MOTION_DDOT": 0}, "tle": {"line1": "1 37278U 93036BHS 25338.39347399  .00006884  00000+0  23061-2 0  9995", "line2": "2 37278  73.7864   4.3592 0299980 188.2556 234.4903 14.15029915637119"}}, "geometry": {"type": "Point", "coordinates": [-8.589034682558347, 22.891502843528546]}}, {"type": "Feature", "properties": {"norad_id": 37280, "name": "COSMOS 2251 DEB", "group": "cosmos-2251-debris", "lat": 13.98551552339101, "lon": 56.25299482349643, "alt_km": 919.5088138861984, "timestamp": "2025-12-15T11:38:37.549676+00:00", "meta": {"OBJECT_NAME": "COSMOS 2251 DEB", "OBJECT_ID": "1993-036BHU", "EPOCH": "2025-12-11T21:18:02.152224", "MEAN_MOTION": 14.19307625, "ECCENTRICITY": 0.0131129, "INCLINATION": 74.0314, "RA_OF_ASC_NODE": 58.592, "ARG_OF_PERICENTER": 187.3743, "MEAN_ANOMALY": 172.5477, "EPHEMERIS_TYPE": 0, "CLASSIFICATION_TYPE": "U", "NORAD_CAT_ID": 37280, "ELEMENT_SET_NO": 999, "REV_AT_EPOCH": 57311, "BSTAR": 0.0026008, "MEAN_MOTION_DOT": 5.928e-05, "MEAN_MOTION_DDOT": 0}, "tle": {"line1": "1 37280U 93036BHU 25345.88752491  .00005928  00000+0  26008-2 0  9995", "line2": "2 37280  74.0314  58.5920 0131129 187.3743 172.5477 14.19307625573118"}}, "geometry": {"type": "Point", "coordinates": [56.25299482349643, 13.98551552339101]}}]}